     2.100          NAVIGATION                              RINEX VERSION / TYPE
fic2rin                                 06/30/2011 00:23:40 PGM / RUN BY / DATE
                                                            END OF HEADER
31 11  6 29 16  0  0.0  .103154219687D-03  .591171556152D-11  .000000000000D+00
     .660000000000D+02 -.659062500000D+02  .445089968355D-08  .245038073151D+01
    -.313669443130D-05  .760564324446D-02  .569969415665D-06  .515368596458D+04
     .316800000000D+06  .154599547386D-06  .165713705841D+01  .614672899246D-07
     .979588838001D+00  .377125000000D+03 -.952255549334D+00 -.821819946385D-08
    -.285726187357D-09  .100000000000D+01  .164200000000D+04  .000000000000D+00
     .240000000000D+01  .000000000000D+00 -.130385160446D-07  .660000000000D+02
     .309606000000D+06  .400000000000D+01
32 11  6 29 16  0  0.0 -.282356981188D-03 -.704858393874D-11  .000000000000D+00
     .107000000000D+03  .733437500000D+02  .425839166482D-08 -.313458574705D+01
     .376440584660D-05  .121525021968D-01  .111851841211D-04  .515364977837D+04
     .316800000000D+06 -.521540641785D-07 -.361062483450D+00  .199303030968D-06
     .954890090708D+00  .153281250000D+03 -.772066672865D+00 -.759067332487D-08
    -.294297972978D-09  .100000000000D+01  .164200000000D+04  .000000000000D+00
     .340000000000D+01  .000000000000D+00 -.279396772385D-08  .107000000000D+03
     .309606000000D+06  .400000000000D+01
 9 11  6 29 15 59 44.0  .895205885172D-04  .238742359215D-11  .000000000000D+00
     .700000000000D+01 -.574375000000D+02  .423553356983D-08  .174441696295D+01
    -.344961881638D-05  .174365449930D-01  .800937414169D-06  .515366579437D+04
     .316784000000D+06  .160187482834D-06  .162750767739D+01 -.374391674995D-06
     .983341186302D+00  .374093750000D+03  .157993134612D+01 -.802926302246D-08
    -.178221709364D-09  .100000000000D+01  .164200000000D+04  .000000000000D+00
     .240000000000D+01  .000000000000D+00 -.558793544769D-08  .700000000000D+01
     .311106000000D+06  .400000000000D+01
30 11  6 29 15 59 44.0  .175666064024D-04  .477484718431D-11  .000000000000D+00
     .800000000000D+01 -.126625000000D+03  .430517932800D-08 -.121501904745D+01
    -.644288957119D-05  .128656595480D-01  .967644155025D-05  .515369495773D+04
     .316784000000D+06 -.197440385818D-06  .265141709908D+01  .255182385445D-06
     .961319314305D+00  .190843750000D+03  .153415107448D+01 -.799890461506D-08
    -.120719314158D-09  .100000000000D+01  .164200000000D+04  .000000000000D+00
     .485000000000D+01  .630000000000D+02 -.838190317154D-08  .800000000000D+01
     .311316000000D+06  .400000000000D+01
 8 11  6 29 15 59 44.0  .835675746202D-05  .113686837722D-12  .000000000000D+00
     .480000000000D+02 -.615625000000D+02  .409302763389D-08  .194967556957D+01
    -.309199094772D-05  .116974530974D-01  .127591192722D-05  .515358365822D+04
     .316784000000D+06 -.223517417908D-07  .173198564395D+01  .244006514549D-06
     .996199541332D+00  .378250000000D+03 -.307107244473D+01 -.806355016495D-08
    -.280725979078D-09  .100000000000D+01  .164200000000D+04  .000000000000D+00
     .240000000000D+01  .000000000000D+00 -.419095158577D-08  .480000000000D+02
     .315006000000D+06  .400000000000D+01
32 11  6 29 15 59 12.0 -.282353721559D-03 -.704858393874D-11  .000000000000D+00
     .110000000000D+02  .733437500000D+02  .425803450709D-08 -.314158705793D+01
     .376440584660D-05  .121525025461D-01  .111851841211D-04  .515364978409D+04
     .316752000000D+06 -.521540641785D-07 -.361062113332D+00  .199303030968D-06
     .954890114115D+00  .153281250000D+03 -.772066677253D+00 -.759067332487D-08
    -.294297972978D-09  .100000000000D+01  .164200000000D+04  .000000000000D+00
     .240000000000D+01  .000000000000D+00 -.279396772385D-08  .110000000000D+02
     .316206000000D+06  .400000000000D+01
32 11  6 29 17 59 12.0 -.282404478639D-03 -.704858393874D-11  .000000000000D+00
     .120000000000D+02  .790625000000D+02  .417088801994D-08 -.209132003494D+01
     .423565506935D-05  .121522152331D-01  .112187117338D-04  .515365106201D+04
     .323952000000D+06 -.225380063057D-06 -.361116955205D+00  .158324837685D-06
     .954887571563D+00  .162406250000D+03 -.772139988467D+00 -.769710632966D-08
    -.280725979078D-09  .100000000000D+01  .164200000000D+04  .000000000000D+00
     .240000000000D+01  .000000000000D+00 -.279396772385D-08  .120000000000D+02
     .316806000000D+06  .400000000000D+01
 8 11  6 29 17 59 44.0  .835768878460D-05  .113686837722D-12  .000000000000D+00
     .520000000000D+02 -.690000000000D+02  .396445084958D-08  .299985343502D+01
    -.351294875145D-05  .116964086192D-01  .103190541267D-05  .515358589172D+04
     .323984000000D+06 -.147148966789D-06  .173192749149D+01  .167638063431D-07
     .996198761597D+00  .383781250000D+03 -.307101795250D+01 -.788175687824D-08
    -.156077929844D-09  .100000000000D+01  .164200000000D+04  .000000000000D+00
     .240000000000D+01  .000000000000D+00 -.419095158577D-08  .520000000000D+02
     .316806000000D+06  .400000000000D+01
 9 11  6 29 17 59 44.0  .895378179848D-04  .238742359215D-11  .000000000000D+00
     .800000000000D+01 -.479375000000D+02  .425231998334D-08  .279452436549D+01
    -.254623591900D-05  .174358865479D-01  .406056642532D-06  .515366844940D+04
     .323984000000D+06  .283122062683D-06  .162745055337D+01 -.186264514923D-06
     .983340078873D+00  .380687500000D+03  .158000622997D+01 -.794675958586D-08
    -.175364447490D-09  .100000000000D+01  .164200000000D+04  .000000000000D+00
     .240000000000D+01  .000000000000D+00 -.558793544769D-08  .800000000000D+01
     .316806000000D+06  .400000000000D+01
30 11  6 29 17 59 44.0  .176005996764D-04  .477484718431D-11  .000000000000D+00
     .900000000000D+01 -.116875000000D+03  .436446751188D-08 -.164778197525D+00
    -.587292015553D-05  .128665795783D-01  .970810651779D-05  .515369747734D+04
     .323984000000D+06 -.165775418282D-06  .265135821516D+01  .521540641785D-07
     .961318334150D+00  .192093750000D+03  .153407622281D+01 -.813855328913D-08
    -.425017703693D-10  .100000000000D+01  .164200000000D+04  .000000000000D+00
     .685000000000D+01  .630000000000D+02 -.838190317154D-08  .900000000000D+01
     .316806000000D+06  .400000000000D+01
 1 11  6 29 18  0  0.0  .942707993090D-04  .181898940355D-11  .000000000000D+00
     .690000000000D+02 -.124125000000D+03  .432982321166D-08  .174861045859D+01
    -.678561627865D-05  .112119008554D-01  .825524330139D-05  .515377849388D+04
     .324000000000D+06  .465661287308D-07  .259272448634D+01 -.251457095146D-06
     .955919320871D+00  .216593750000D+03  .149934277182D+01 -.786282751833D-08
    -.115004790411D-09  .100000000000D+01  .164200000000D+04  .000000000000D+00
     .240000000000D+01  .630000000000D+02 -.419095158577D-08  .690000000000D+02
     .316806000000D+06  .400000000000D+01
 2 11  6 29 18  0  0.0  .344179105014D-03  .193267624127D-11  .000000000000D+00
     .240000000000D+02 -.160000000000D+02  .529522056719D-08 -.126035181537D+01
    -.847503542900D-06  .103350658901D-01  .506639480591D-05  .515376472855D+04
     .324000000000D+06  .614672899246D-07 -.151213787027D+01 -.258907675743D-06
     .938450933540D+00  .271750000000D+03 -.296978377125D+01 -.828855953749D-08
    -.136434254463D-09  .100000000000D+01  .164200000000D+04  .000000000000D+00
     .240000000000D+01  .000000000000D+00 -.172294676304D-07  .240000000000D+02
     .316806000000D+06  .400000000000D+01
 3 11  6 29 18  0  0.0  .735305715352D-03  .511590769747D-11  .000000000000D+00
     .113000000000D+03  .318750000000D+01  .525914763604D-08 -.111383324052D+01
     .262632966042D-06  .143921364797D-01  .885315239429D-05  .515365674400D+04
     .324000000000D+06  .147148966789D-06 -.267079658554D+01  .398606061935D-06
     .929225021655D+00  .190687500000D+03  .109973139634D+01 -.830213153139D-08
     .421446126351D-09  .100000000000D+01  .164200000000D+04  .000000000000D+00
     .485000000000D+01  .000000000000D+00 -.465661287308D-08  .113000000000D+03
     .316806000000D+06  .400000000000D+01
 4 11  6 29 18  0  0.0  .158065930009D-03  .108002495836D-10  .000000000000D+00
     .130000000000D+02 -.117187500000D+02  .538522431621D-08  .194272471913D+01
    -.735744833946D-06  .957784499042D-02  .545382499695D-05  .515365646553D+04
     .324000000000D+06 -.176951289177D-06 -.149480324485D+01 -.838190317154D-07
     .937539065980D+00  .266593750000D+03  .731529185093D+00 -.837820612877D-08
    -.277868717205D-09  .100000000000D+01  .164200000000D+04  .000000000000D+00
     .240000000000D+01  .000000000000D+00 -.605359673500D-08  .130000000000D+02
     .316806000000D+06  .400000000000D+01
 5 11  6 29 18  0  0.0 -.182052142918D-03 -.557065504836D-11  .000000000000D+00
     .111000000000D+03  .375937500000D+02  .434160941689D-08  .729324925962D+00
     .204332172871D-05  .223000196274D-02  .107958912849D-04  .515370215988D+04
     .324000000000D+06  .149011611938D-07 -.450106043992D+00  .931322574615D-07
     .954082397544D+00  .167593750000D+03  .186216708993D+00 -.778603860547D-08
    -.346800159904D-09  .100000000000D+01  .164200000000D+04  .000000000000D+00
     .240000000000D+01  .000000000000D+00 -.102445483208D-07  .111000000000D+03
     .316806000000D+06  .400000000000D+01
 6 11  6 29 18  0  0.0  .988198444247D-04 -.832187652122D-10  .000000000000D+00
     .120000000000D+02  .468750000000D+00  .514700010750D-08  .904577390182D+00
    -.225380063057D-06  .678569753654D-02  .834651291370D-05  .515363364792D+04
     .324000000000D+06  .111758708954D-06 -.259691127450D+01 -.633299350739D-07
     .936270838890D+00  .202375000000D+03 -.754784049797D+00 -.821641367518D-08
     .433946647048D-09  .100000000000D+01  .164200000000D+04  .000000000000D+00
     .240000000000D+01  .000000000000D+00 -.512227416039D-08  .120000000000D+02
     .316806000000D+06  .400000000000D+01
